{
  "type": "FeatureCollection",
  "name": "lisbon-freguesias",
  "features": [
    {
      "type": "Feature",
      "properties": {
        "name": "ajuda",
        "source": "geoBoundaries PRT ADM3 simplified / lisbonne_qgis",
        "shapeID": "12082587B28268877742405",
        "centroid": [
          -9.199228130633674,
          38.70866973705876
        ]
      },
      "geometry": {
        "type": "Polygon",
        "coordinates": [
          [
            [
              -9.19338273302668,
              38.700583098930906
            ],
            [
              -9.189144423376376,
              38.707760671817596
            ],
            [
              -9.186131898668123,
              38.70712067827674
            ],
            [
              -9.192795801285172,
              38.71278186199339
            ],
            [
              -9.194146503858008,
              38.72476967018417
            ],
            [
              -9.209431068389051,
              38.71964186178252
            ],
            [
              -9.205636843065804,
              38.715428985859035
            ],
            [
              -9.210084196528385,
              38.71150802447579
            ],
            [
              -9.20535282367382,
              38.71036371271521
            ],
            [
              -9.204384538915292,
              38.70706107480879
            ],
            [
              -9.202567334614741,
              38.70755339247512
            ],
            [
              -9.202543632082893,
              38.70167237038362
            ],
            [
              -9.199829864856326,
              38.7008607385323
            ],
            [
              -9.19960756413775,
              38.7023568147153
            ],
            [
              -9.19338273302668,
              38.700583098930906
            ]
          ]
        ]
      }
    },
    {
      "type": "Feature",
      "properties": {
        "name": "alcântara",
        "source": "geoBoundaries PRT ADM3 simplified / lisbonne_qgis",
        "shapeID": "12082587B31162098789651",
        "centroid": [
          -9.184680233312324,
          38.70784303600235
        ]
      },
      "geometry": {
        "type": "Polygon",
        "coordinates": [
          [
            [
              -9.19338273302668,
              38.700583098930906
            ],
            [
              -9.191180230383281,
              38.697930115082784
            ],
            [
              -9.188073909083585,
              38.698522477830124
            ],
            [
              -9.185936744884827,
              38.691566558150214
            ],
            [
              -9.17473271294432,
              38.69209907371334
            ],
            [
              -9.175930727720868,
              38.69878696574591
            ],
            [
              -9.173674522960823,
              38.70858121864836
            ],
            [
              -9.175139165140308,
              38.71214045921488
            ],
            [
              -9.174915103549154,
              38.72299819461102
            ],
            [
              -9.178122079670175,
              38.72375945093796
            ],
            [
              -9.188194443418809,
              38.72550498196938
            ],
            [
              -9.194146503858008,
              38.72476967018417
            ],
            [
              -9.192795801285172,
              38.71278186199339
            ],
            [
              -9.186131898668123,
              38.70712067827674
            ],
            [
              -9.189144423376376,
              38.707760671817596
            ],
            [
              -9.19338273302668,
              38.700583098930906
            ]
          ]
        ]
      }
    },
    {
      "type": "Feature",
      "properties": {
        "name": "alvalade",
        "source": "geoBoundaries PRT ADM3 simplified / lisbonne_qgis",
        "shapeID": "12082587B99508574849530",
        "centroid": [
          -9.145135916746256,
          38.75154029334278
        ]
      },
      "geometry": {
        "type": "Polygon",
        "coordinates": [
          [
            [
              -9.130100338259979,
              38.7486355539877
            ],
            [
              -9.128709983678732,
              38.749599915903445
            ],
            [
              -9.13008806790998,
              38.75139462905895
            ],
            [
              -9.128573975608447,
              38.76301396072574
            ],
            [
              -9.14686397818997,
              38.76209863884117
            ],
            [
              -9.164244919067698,
              38.75734405358526
            ],
            [
              -9.169697512230357,
              38.757318262827596
            ],
            [
              -9.16960124520125,
              38.754564548615065
            ],
            [
              -9.162021700541004,
              38.745126699737455
            ],
            [
              -9.148393685420217,
              38.74825825781238
            ],
            [
              -9.147523666883671,
              38.74463220840977
            ],
            [
              -9.145512752211687,
              38.745009082802994
            ],
            [
              -9.130470670984607,
              38.74593274050363
            ],
            [
              -9.130100338259979,
              38.7486355539877
            ]
          ]
        ]
      }
    },
    {
      "type": "Feature",
      "properties": {
        "name": "areeiro",
        "source": "geoBoundaries PRT ADM3 simplified / lisbonne_qgis",
        "shapeID": "12082587B19704881338441",
        "centroid": [
          -9.132689105118061,
          38.741348849106515
        ]
      },
      "geometry": {
        "type": "Polygon",
        "coordinates": [
          [
            [
              -9.145512752211687,
              38.745009082802994
            ],
            [
              -9.141904505788261,
              38.739186889863106
            ],
            [
              -9.14162174184986,
              38.73521797482971
            ],
            [
              -9.131185382899048,
              38.73721889443647
            ],
            [
              -9.126475856375635,
              38.73786520751338
            ],
            [
              -9.123224768508237,
              38.738933959134954
            ],
            [
              -9.123467411891511,
              38.740656776888784
            ],
            [
              -9.120103975318159,
              38.74117117740798
            ],
            [
              -9.130100338259979,
              38.7486355539877
            ],
            [
              -9.130470670984607,
              38.74593274050363
            ],
            [
              -9.145512752211687,
              38.745009082802994
            ]
          ]
        ]
      }
    },
    {
      "type": "Feature",
      "properties": {
        "name": "arroios",
        "source": "geoBoundaries PRT ADM3 simplified / lisbonne_qgis",
        "shapeID": "12082587B63751264183671",
        "centroid": [
          -9.138545000056926,
          38.725131037614716
        ]
      },
      "geometry": {
        "type": "Polygon",
        "coordinates": [
          [
            [
              -9.14162174184986,
              38.73521797482971
            ],
            [
              -9.145142292682635,
              38.735140390316815
            ],
            [
              -9.14812512267622,
              38.728352511659125
            ],
            [
              -9.1451044033455,
              38.72845879443787
            ],
            [
              -9.14286322715617,
              38.72595510704258
            ],
            [
              -9.14077276924786,
              38.72234369680422
            ],
            [
              -9.141878866116713,
              38.72062580553654
            ],
            [
              -9.14032842052012,
              38.720266412165245
            ],
            [
              -9.141150340615695,
              38.71689919304339
            ],
            [
              -9.13842257004552,
              38.71507600015735
            ],
            [
              -9.136209363671128,
              38.71712074912335
            ],
            [
              -9.136718824214313,
              38.72016646421099
            ],
            [
              -9.134285890981062,
              38.718941605570706
            ],
            [
              -9.131880079502025,
              38.72064946669957
            ],
            [
              -9.131704247652863,
              38.72331664005094
            ],
            [
              -9.13022528197115,
              38.72644204316583
            ],
            [
              -9.133114434083836,
              38.730079990599165
            ],
            [
              -9.131185382899048,
              38.73721889443647
            ],
            [
              -9.14162174184986,
              38.73521797482971
            ]
          ]
        ]
      }
    },
    {
      "type": "Feature",
      "properties": {
        "name": "avenidas novas",
        "source": "geoBoundaries PRT ADM3 simplified / lisbonne_qgis",
        "shapeID": "12082587B62433379422541",
        "centroid": [
          -9.153953846966107,
          38.7374346479486
        ]
      },
      "geometry": {
        "type": "Polygon",
        "coordinates": [
          [
            [
              -9.162021700541004,
              38.745126699737455
            ],
            [
              -9.166480916061403,
              38.743216771736684
            ],
            [
              -9.162146851995601,
              38.740813872262436
            ],
            [
              -9.158955441340481,
              38.74087697769045
            ],
            [
              -9.15772462199368,
              38.73885772090716
            ],
            [
              -9.156420214721095,
              38.73745767792957
            ],
            [
              -9.159243253173543,
              38.73382333857626
            ],
            [
              -9.15547503534458,
              38.73162277666984
            ],
            [
              -9.160008171539857,
              38.72840584235581
            ],
            [
              -9.156374690139785,
              38.724871202743884
            ],
            [
              -9.150026727451461,
              38.725261414982356
            ],
            [
              -9.14812512267622,
              38.728352511659125
            ],
            [
              -9.145142292682635,
              38.735140390316815
            ],
            [
              -9.14162174184986,
              38.73521797482971
            ],
            [
              -9.141904505788261,
              38.739186889863106
            ],
            [
              -9.145512752211687,
              38.745009082802994
            ],
            [
              -9.147523666883671,
              38.74463220840977
            ],
            [
              -9.148393685420217,
              38.74825825781238
            ],
            [
              -9.162021700541004,
              38.745126699737455
            ]
          ]
        ]
      }
    },
    {
      "type": "Feature",
      "properties": {
        "name": "beato",
        "source": "geoBoundaries PRT ADM3 simplified / lisbonne_qgis",
        "shapeID": "12082587B57906925820782",
        "centroid": [
          -9.113687049437734,
          38.733849023573626
        ]
      },
      "geometry": {
        "type": "Polygon",
        "coordinates": [
          [
            [
              -9.126475856375635,
              38.73786520751338
            ],
            [
              -9.122051683838095,
              38.733323300230154
            ],
            [
              -9.117175578590036,
              38.732748476061374
            ],
            [
              -9.114309826836973,
              38.72651676243868
            ],
            [
              -9.104809052395808,
              38.72054713194461
            ],
            [
              -9.09975424646126,
              38.72487215602524
            ],
            [
              -9.096588936829903,
              38.731907236729626
            ],
            [
              -9.103512439547387,
              38.734068767159954
            ],
            [
              -9.106230589170309,
              38.73748810918892
            ],
            [
              -9.107757269282502,
              38.73422156467353
            ],
            [
              -9.11336825014456,
              38.735549520693894
            ],
            [
              -9.120103975318159,
              38.74117117740798
            ],
            [
              -9.123467411891511,
              38.740656776888784
            ],
            [
              -9.123224768508237,
              38.738933959134954
            ],
            [
              -9.126475856375635,
              38.73786520751338
            ]
          ]
        ]
      }
    },
    {
      "type": "Feature",
      "properties": {
        "name": "belém",
        "source": "geoBoundaries PRT ADM3 simplified / lisbonne_qgis",
        "shapeID": "12082587B52201950925726",
        "centroid": [
          -9.210202194487637,
          38.70183541146311
        ]
      },
      "geometry": {
        "type": "Polygon",
        "coordinates": [
          [
            [
              -9.209431068389051,
              38.71964186178252
            ],
            [
              -9.219884307614677,
              38.71686344858932
            ],
            [
              -9.223246039972707,
              38.710743762614584
            ],
            [
              -9.222189273616038,
              38.70666471750275
            ],
            [
              -9.226069509200443,
              38.7041906942452
            ],
            [
              -9.226407045448752,
              38.69757933272007
            ],
            [
              -9.22868439686738,
              38.69736789940907
            ],
            [
              -9.230030344724582,
              38.694748299294645
            ],
            [
              -9.237942841788652,
              38.68258416822482
            ],
            [
              -9.229600341982177,
              38.68003306407468
            ],
            [
              -9.207784096758587,
              38.68146555459174
            ],
            [
              -9.195774112185461,
              38.68895325778669
            ],
            [
              -9.185936744884827,
              38.691566558150214
            ],
            [
              -9.188073909083585,
              38.698522477830124
            ],
            [
              -9.191180230383281,
              38.697930115082784
            ],
            [
              -9.19338273302668,
              38.700583098930906
            ],
            [
              -9.19960756413775,
              38.7023568147153
            ],
            [
              -9.199829864856326,
              38.7008607385323
            ],
            [
              -9.202543632082893,
              38.70167237038362
            ],
            [
              -9.202567334614741,
              38.70755339247512
            ],
            [
              -9.204384538915292,
              38.70706107480879
            ],
            [
              -9.20535282367382,
              38.71036371271521
            ],
            [
              -9.210084196528385,
              38.71150802447579
            ],
            [
              -9.205636843065804,
              38.715428985859035
            ],
            [
              -9.209431068389051,
              38.71964186178252
            ]
          ]
        ]
      }
    },
    {
      "type": "Feature",
      "properties": {
        "name": "benfica",
        "source": "geoBoundaries PRT ADM3 simplified / lisbonne_qgis",
        "shapeID": "12082587B84904324912935",
        "centroid": [
          -9.19481665076777,
          38.7370795387782
        ]
      },
      "geometry": {
        "type": "Polygon",
        "coordinates": [
          [
            [
              -9.205354727538577,
              38.740356554411505
            ],
            [
              -9.205094238008655,
              38.73770639173665
            ],
            [
              -9.209914036703367,
              38.73009444450304
            ],
            [
              -9.207954771895174,
              38.72416448400378
            ],
            [
              -9.211211106407404,
              38.7219935997249
            ],
            [
              -9.219884307614677,
              38.71686344858932
            ],
            [
              -9.209431068389051,
              38.71964186178252
            ],
            [
              -9.194146503858008,
              38.72476967018417
            ],
            [
              -9.188194443418809,
              38.72550498196938
            ],
            [
              -9.178122079670175,
              38.72375945093796
            ],
            [
              -9.173861818468083,
              38.72669937607537
            ],
            [
              -9.180150364747476,
              38.73201630021214
            ],
            [
              -9.17533067397136,
              38.73271653034368
            ],
            [
              -9.174485965055169,
              38.73439851437996
            ],
            [
              -9.18290397643733,
              38.73680889531431
            ],
            [
              -9.186423381533757,
              38.73858010019154
            ],
            [
              -9.185941531076764,
              38.74046489304044
            ],
            [
              -9.189197039112003,
              38.74125289430566
            ],
            [
              -9.190173733430981,
              38.743946551791964
            ],
            [
              -9.18735203316976,
              38.752430044610946
            ],
            [
              -9.194644025901027,
              38.755832006342075
            ],
            [
              -9.193700559732974,
              38.75768446676477
            ],
            [
              -9.198059806614765,
              38.759055241306385
            ],
            [
              -9.206930038490441,
              38.75649277332286
            ],
            [
              -9.211415961177636,
              38.750477977976345
            ],
            [
              -9.205354727538577,
              38.740356554411505
            ]
          ]
        ]
      }
    },
    {
      "type": "Feature",
      "properties": {
        "name": "campo de ourique",
        "source": "geoBoundaries PRT ADM3 simplified / lisbonne_qgis",
        "shapeID": "12082587B38063546196289",
        "centroid": [
          -9.16573776331208,
          38.7162573285192
        ]
      },
      "geometry": {
        "type": "Polygon",
        "coordinates": [
          [
            [
              -9.175139165140308,
              38.71214045921488
            ],
            [
              -9.172987659452872,
              38.71233143294933
            ],
            [
              -9.17212177959641,
              38.71579318430804
            ],
            [
              -9.169503460116516,
              38.71515727818587
            ],
            [
              -9.168238636503816,
              38.71253385415412
            ],
            [
              -9.16488570850862,
              38.71281381850298
            ],
            [
              -9.16395008442879,
              38.7155469490325
            ],
            [
              -9.161590820060269,
              38.7163487387034
            ],
            [
              -9.157515714878286,
              38.714416301571134
            ],
            [
              -9.154230081353148,
              38.715196588451875
            ],
            [
              -9.154455455954462,
              38.71550412511533
            ],
            [
              -9.155645955996022,
              38.72059906959146
            ],
            [
              -9.160635454062913,
              38.72426627826616
            ],
            [
              -9.170849968251389,
              38.7223305244342
            ],
            [
              -9.174915103549154,
              38.72299819461102
            ],
            [
              -9.175139165140308,
              38.71214045921488
            ]
          ]
        ]
      }
    },
    {
      "type": "Feature",
      "properties": {
        "name": "campolide",
        "source": "geoBoundaries PRT ADM3 simplified / lisbonne_qgis",
        "shapeID": "12082587B74028952403337",
        "centroid": [
          -9.167213930173428,
          38.73129634652816
        ]
      },
      "geometry": {
        "type": "Polygon",
        "coordinates": [
          [
            [
              -9.174915103549154,
              38.72299819461102
            ],
            [
              -9.170849968251389,
              38.7223305244342
            ],
            [
              -9.160635454062913,
              38.72426627826616
            ],
            [
              -9.156374690139785,
              38.724871202743884
            ],
            [
              -9.160008171539857,
              38.72840584235581
            ],
            [
              -9.15547503534458,
              38.73162277666984
            ],
            [
              -9.159243253173543,
              38.73382333857626
            ],
            [
              -9.156420214721095,
              38.73745767792957
            ],
            [
              -9.15772462199368,
              38.73885772090716
            ],
            [
              -9.160227571045539,
              38.73791036786923
            ],
            [
              -9.16591764548292,
              38.73896639588253
            ],
            [
              -9.168542114526929,
              38.741670603315754
            ],
            [
              -9.17386482400235,
              38.73886129391366
            ],
            [
              -9.174485965055169,
              38.73439851437996
            ],
            [
              -9.17533067397136,
              38.73271653034368
            ],
            [
              -9.180150364747476,
              38.73201630021214
            ],
            [
              -9.173861818468083,
              38.72669937607537
            ],
            [
              -9.178122079670175,
              38.72375945093796
            ],
            [
              -9.174915103549154,
              38.72299819461102
            ]
          ]
        ]
      }
    },
    {
      "type": "Feature",
      "properties": {
        "name": "carnide",
        "source": "geoBoundaries PRT ADM3 simplified / lisbonne_qgis",
        "shapeID": "12082587B7441467569732",
        "centroid": [
          -9.187502857712772,
          38.76351551589681
        ]
      },
      "geometry": {
        "type": "Polygon",
        "coordinates": [
          [
            [
              -9.18735203316976,
              38.752430044610946
            ],
            [
              -9.182494607739898,
              38.75609547802395
            ],
            [
              -9.175197572509944,
              38.75763741963124
            ],
            [
              -9.17860060623292,
              38.76007627130292
            ],
            [
              -9.176922750084827,
              38.76272335290048
            ],
            [
              -9.176820240861389,
              38.77036282388525
            ],
            [
              -9.179344946312199,
              38.769042200037575
            ],
            [
              -9.182729010635285,
              38.77352016912056
            ],
            [
              -9.175216585077294,
              38.78026136487017
            ],
            [
              -9.183114980771677,
              38.778545574418786
            ],
            [
              -9.19603644802362,
              38.76954072302601
            ],
            [
              -9.198508109661475,
              38.76566961466102
            ],
            [
              -9.197634663808628,
              38.76337902791988
            ],
            [
              -9.200701731499635,
              38.76197031188042
            ],
            [
              -9.198123584735583,
              38.76053866672612
            ],
            [
              -9.198059806614765,
              38.759055241306385
            ],
            [
              -9.193700559732974,
              38.75768446676477
            ],
            [
              -9.194644025901027,
              38.755832006342075
            ],
            [
              -9.18735203316976,
              38.752430044610946
            ]
          ]
        ]
      }
    },
    {
      "type": "Feature",
      "properties": {
        "name": "estrela",
        "source": "geoBoundaries PRT ADM3 simplified / lisbonne_qgis",
        "shapeID": "12082587B10499771193604",
        "centroid": [
          -9.166722070749278,
          38.706886764030635
        ]
      },
      "geometry": {
        "type": "Polygon",
        "coordinates": [
          [
            [
              -9.17473271294432,
              38.69209907371334
            ],
            [
              -9.165563575198803,
              38.69320516428695
            ],
            [
              -9.159975661047895,
              38.695536767308
            ],
            [
              -9.149502179881665,
              38.69448812003077
            ],
            [
              -9.154230081353148,
              38.715196588451875
            ],
            [
              -9.157515714878286,
              38.714416301571134
            ],
            [
              -9.161590820060269,
              38.7163487387034
            ],
            [
              -9.16395008442879,
              38.7155469490325
            ],
            [
              -9.16488570850862,
              38.71281381850298
            ],
            [
              -9.168238636503816,
              38.71253385415412
            ],
            [
              -9.169503460116516,
              38.71515727818587
            ],
            [
              -9.17212177959641,
              38.71579318430804
            ],
            [
              -9.172987659452872,
              38.71233143294933
            ],
            [
              -9.175139165140308,
              38.71214045921488
            ],
            [
              -9.173674522960823,
              38.70858121864836
            ],
            [
              -9.175930727720868,
              38.69878696574591
            ],
            [
              -9.17473271294432,
              38.69209907371334
            ]
          ]
        ]
      }
    },
    {
      "type": "Feature",
      "properties": {
        "name": "lumiar",
        "source": "geoBoundaries PRT ADM3 simplified / lisbonne_qgis",
        "shapeID": "12082587B33675874620431",
        "centroid": [
          -9.162934317901902,
          38.77256406860194
        ]
      },
      "geometry": {
        "type": "Polygon",
        "coordinates": [
          [
            [
              -9.14686397818997,
              38.76209863884117
            ],
            [
              -9.147566509686612,
              38.76904278279824
            ],
            [
              -9.141806528248651,
              38.777732278821645
            ],
            [
              -9.143650052108171,
              38.778173836053725
            ],
            [
              -9.144462958298845,
              38.77626051041426
            ],
            [
              -9.1547981174391,
              38.77919705589949
            ],
            [
              -9.156156885132077,
              38.77708634885596
            ],
            [
              -9.159607171034054,
              38.77647234302424
            ],
            [
              -9.159947754185453,
              38.778634820440686
            ],
            [
              -9.163488154854406,
              38.7785999852012
            ],
            [
              -9.162555854668938,
              38.78386061357651
            ],
            [
              -9.165316209475463,
              38.782868795358695
            ],
            [
              -9.169268466366589,
              38.78556658522979
            ],
            [
              -9.169296868755453,
              38.78555849492864
            ],
            [
              -9.175216585077294,
              38.78026136487017
            ],
            [
              -9.182729010635285,
              38.77352016912056
            ],
            [
              -9.179344946312199,
              38.769042200037575
            ],
            [
              -9.176820240861389,
              38.77036282388525
            ],
            [
              -9.176922750084827,
              38.76272335290048
            ],
            [
              -9.17860060623292,
              38.76007627130292
            ],
            [
              -9.175197572509944,
              38.75763741963124
            ],
            [
              -9.169697512230357,
              38.757318262827596
            ],
            [
              -9.164244919067698,
              38.75734405358526
            ],
            [
              -9.14686397818997,
              38.76209863884117
            ]
          ]
        ]
      }
    },
    {
      "type": "Feature",
      "properties": {
        "name": "marvila",
        "source": "geoBoundaries PRT ADM3 simplified / lisbonne_qgis",
        "shapeID": "12082587B8699116330732",
        "centroid": [
          -9.114533877567116,
          38.744911611028236
        ]
      },
      "geometry": {
        "type": "Polygon",
        "coordinates": [
          [
            [
              -9.130100338259979,
              38.7486355539877
            ],
            [
              -9.120103975318159,
              38.74117117740798
            ],
            [
              -9.11336825014456,
              38.735549520693894
            ],
            [
              -9.107757269282502,
              38.73422156467353
            ],
            [
              -9.106230589170309,
              38.73748810918892
            ],
            [
              -9.103512439547387,
              38.734068767159954
            ],
            [
              -9.096588936829903,
              38.731907236729626
            ],
            [
              -9.090709646832693,
              38.752420578347085
            ],
            [
              -9.103096597529884,
              38.75574437550256
            ],
            [
              -9.128573975608447,
              38.76301396072574
            ],
            [
              -9.13008806790998,
              38.75139462905895
            ],
            [
              -9.128709983678732,
              38.749599915903445
            ],
            [
              -9.130100338259979,
              38.7486355539877
            ]
          ]
        ]
      }
    },
    {
      "type": "Feature",
      "properties": {
        "name": "misericórdia",
        "source": "geoBoundaries PRT ADM3 simplified / lisbonne_qgis",
        "shapeID": "12082587B75378634363756",
        "centroid": [
          -9.146917857344635,
          38.71074292039952
        ]
      },
      "geometry": {
        "type": "Polygon",
        "coordinates": [
          [
            [
              -9.154230081353148,
              38.715196588451875
            ],
            [
              -9.149502179881665,
              38.69448812003077
            ],
            [
              -9.138552243291372,
              38.69662880597468
            ],
            [
              -9.141968718281703,
              38.70706572790107
            ],
            [
              -9.140789997560319,
              38.70754540739466
            ],
            [
              -9.14264603188883,
              38.70794444198248
            ],
            [
              -9.143284885089315,
              38.71296852887457
            ],
            [
              -9.141643057581007,
              38.71348788555753
            ],
            [
              -9.143435789530031,
              38.71505912797642
            ],
            [
              -9.149418381952728,
              38.717160677223546
            ],
            [
              -9.15004621396156,
              38.7153918447579
            ],
            [
              -9.1526468851456,
              38.71676301590054
            ],
            [
              -9.154455455954462,
              38.71550412511533
            ],
            [
              -9.154230081353148,
              38.715196588451875
            ]
          ]
        ]
      }
    },
    {
      "type": "Feature",
      "properties": {
        "name": "olivais",
        "source": "geoBoundaries PRT ADM3 simplified / lisbonne_qgis",
        "shapeID": "12082587B41475959030860",
        "centroid": [
          -9.128874688216234,
          38.77352306831
        ]
      },
      "geometry": {
        "type": "Polygon",
        "coordinates": [
          [
            [
              -9.128573975608447,
              38.76301396072574
            ],
            [
              -9.103096597529884,
              38.75574437550256
            ],
            [
              -9.105067014830809,
              38.77488770160619
            ],
            [
              -9.11310189613556,
              38.78007874403886
            ],
            [
              -9.122038757882308,
              38.78336185406636
            ],
            [
              -9.131388763680434,
              38.78434870892585
            ],
            [
              -9.139768802088497,
              38.78680022844782
            ],
            [
              -9.138649459105181,
              38.78215358521982
            ],
            [
              -9.141806528248651,
              38.777732278821645
            ],
            [
              -9.147566509686612,
              38.76904278279824
            ],
            [
              -9.14686397818997,
              38.76209863884117
            ],
            [
              -9.128573975608447,
              38.76301396072574
            ]
          ]
        ]
      }
    },
    {
      "type": "Feature",
      "properties": {
        "name": "parque das nações",
        "source": "geoBoundaries PRT ADM3 simplified / lisbonne_qgis",
        "shapeID": "12082587B55667352498415",
        "centroid": [
          -9.096845037443472,
          38.77331063675154
        ]
      },
      "geometry": {
        "type": "Polygon",
        "coordinates": [
          [
            [
              -9.090709646832693,
              38.752420578347085
            ],
            [
              -9.086332668917464,
              38.7962257314324
            ],
            [
              -9.099397059126943,
              38.79637061041541
            ],
            [
              -9.100322152145566,
              38.783197498465825
            ],
            [
              -9.099125513331728,
              38.77521801989576
            ],
            [
              -9.105067014830809,
              38.77488770160619
            ],
            [
              -9.103096597529884,
              38.75574437550256
            ],
            [
              -9.090709646832693,
              38.752420578347085
            ]
          ]
        ]
      }
    },
    {
      "type": "Feature",
      "properties": {
        "name": "penha de frança",
        "source": "geoBoundaries PRT ADM3 simplified / lisbonne_qgis",
        "shapeID": "12082587B28486647578446",
        "centroid": [
          -9.123564875018916,
          38.72770596026191
        ]
      },
      "geometry": {
        "type": "Polygon",
        "coordinates": [
          [
            [
              -9.131185382899048,
              38.73721889443647
            ],
            [
              -9.133114434083836,
              38.730079990599165
            ],
            [
              -9.13022528197115,
              38.72644204316583
            ],
            [
              -9.131704247652863,
              38.72331664005094
            ],
            [
              -9.129663122055376,
              38.72139534821679
            ],
            [
              -9.127456622824809,
              38.72385024379378
            ],
            [
              -9.121526156007235,
              38.72282022147607
            ],
            [
              -9.109025621834917,
              38.71454028930299
            ],
            [
              -9.104809052395808,
              38.72054713194461
            ],
            [
              -9.114309826836973,
              38.72651676243868
            ],
            [
              -9.117175578590036,
              38.732748476061374
            ],
            [
              -9.122051683838095,
              38.733323300230154
            ],
            [
              -9.126475856375635,
              38.73786520751338
            ],
            [
              -9.131185382899048,
              38.73721889443647
            ]
          ]
        ]
      }
    },
    {
      "type": "Feature",
      "properties": {
        "name": "santa clara",
        "source": "geoBoundaries PRT ADM3 simplified / lisbonne_qgis",
        "shapeID": "12082587B64027540742871",
        "centroid": [
          -9.15234119627414,
          38.78339315636411
        ]
      },
      "geometry": {
        "type": "Polygon",
        "coordinates": [
          [
            [
              -9.141806528248651,
              38.777732278821645
            ],
            [
              -9.138649459105181,
              38.78215358521982
            ],
            [
              -9.139768802088497,
              38.78680022844782
            ],
            [
              -9.142524232207506,
              38.78851897676941
            ],
            [
              -9.145091836219194,
              38.78814688047419
            ],
            [
              -9.14610197092918,
              38.79411491197368
            ],
            [
              -9.14988762751193,
              38.79585416303922
            ],
            [
              -9.156441456707796,
              38.79389751166087
            ],
            [
              -9.1654938606531,
              38.78619141799959
            ],
            [
              -9.169268466366589,
              38.78556658522979
            ],
            [
              -9.165316209475463,
              38.782868795358695
            ],
            [
              -9.162555854668938,
              38.78386061357651
            ],
            [
              -9.163488154854406,
              38.7785999852012
            ],
            [
              -9.159947754185453,
              38.778634820440686
            ],
            [
              -9.159607171034054,
              38.77647234302424
            ],
            [
              -9.156156885132077,
              38.77708634885596
            ],
            [
              -9.1547981174391,
              38.77919705589949
            ],
            [
              -9.144462958298845,
              38.77626051041426
            ],
            [
              -9.143650052108171,
              38.778173836053725
            ],
            [
              -9.141806528248651,
              38.777732278821645
            ]
          ]
        ]
      }
    },
    {
      "type": "Feature",
      "properties": {
        "name": "santa maria maior",
        "source": "geoBoundaries PRT ADM3 simplified / lisbonne_qgis",
        "shapeID": "12082587B30123855289437",
        "centroid": [
          -9.136895880827701,
          38.71251457072216
        ]
      },
      "geometry": {
        "type": "Polygon",
        "coordinates": [
          [
            [
              -9.141150340615695,
              38.71689919304339
            ],
            [
              -9.143435789530031,
              38.71505912797642
            ],
            [
              -9.141643057581007,
              38.71348788555753
            ],
            [
              -9.143284885089315,
              38.71296852887457
            ],
            [
              -9.14264603188883,
              38.70794444198248
            ],
            [
              -9.140789997560319,
              38.70754540739466
            ],
            [
              -9.141968718281703,
              38.70706572790107
            ],
            [
              -9.138552243291372,
              38.69662880597468
            ],
            [
              -9.11584789866157,
              38.7076998659561
            ],
            [
              -9.12363373700731,
              38.713714439170076
            ],
            [
              -9.130594404208352,
              38.71301569561791
            ],
            [
              -9.134285890981062,
              38.718941605570706
            ],
            [
              -9.136718824214313,
              38.72016646421099
            ],
            [
              -9.136209363671128,
              38.71712074912335
            ],
            [
              -9.13842257004552,
              38.71507600015735
            ],
            [
              -9.141150340615695,
              38.71689919304339
            ]
          ]
        ]
      }
    },
    {
      "type": "Feature",
      "properties": {
        "name": "santo antónio",
        "source": "geoBoundaries PRT ADM3 simplified / lisbonne_qgis",
        "shapeID": "12082587B92696421418401",
        "centroid": [
          -9.148296107444063,
          38.72153710522974
        ]
      },
      "geometry": {
        "type": "Polygon",
        "coordinates": [
          [
            [
              -9.14812512267622,
              38.728352511659125
            ],
            [
              -9.150026727451461,
              38.725261414982356
            ],
            [
              -9.156374690139785,
              38.724871202743884
            ],
            [
              -9.160635454062913,
              38.72426627826616
            ],
            [
              -9.155645955996022,
              38.72059906959146
            ],
            [
              -9.154455455954462,
              38.71550412511533
            ],
            [
              -9.1526468851456,
              38.71676301590054
            ],
            [
              -9.15004621396156,
              38.7153918447579
            ],
            [
              -9.149418381952728,
              38.717160677223546
            ],
            [
              -9.143435789530031,
              38.71505912797642
            ],
            [
              -9.141150340615695,
              38.71689919304339
            ],
            [
              -9.14032842052012,
              38.720266412165245
            ],
            [
              -9.141878866116713,
              38.72062580553654
            ],
            [
              -9.14077276924786,
              38.72234369680422
            ],
            [
              -9.14286322715617,
              38.72595510704258
            ],
            [
              -9.1451044033455,
              38.72845879443787
            ],
            [
              -9.14812512267622,
              38.728352511659125
            ]
          ]
        ]
      }
    },
    {
      "type": "Feature",
      "properties": {
        "name": "são domingos de benfica",
        "source": "geoBoundaries PRT ADM3 simplified / lisbonne_qgis",
        "shapeID": "12082587B55694192907961",
        "centroid": [
          -9.17328799031988,
          38.74462459851787
        ]
      },
      "geometry": {
        "type": "Polygon",
        "coordinates": [
          [
            [
              -9.169697512230357,
              38.757318262827596
            ],
            [
              -9.175197572509944,
              38.75763741963124
            ],
            [
              -9.182494607739898,
              38.75609547802395
            ],
            [
              -9.18735203316976,
              38.752430044610946
            ],
            [
              -9.190173733430981,
              38.743946551791964
            ],
            [
              -9.189197039112003,
              38.74125289430566
            ],
            [
              -9.185941531076764,
              38.74046489304044
            ],
            [
              -9.186423381533757,
              38.73858010019154
            ],
            [
              -9.18290397643733,
              38.73680889531431
            ],
            [
              -9.174485965055169,
              38.73439851437996
            ],
            [
              -9.17386482400235,
              38.73886129391366
            ],
            [
              -9.168542114526929,
              38.741670603315754
            ],
            [
              -9.16591764548292,
              38.73896639588253
            ],
            [
              -9.160227571045539,
              38.73791036786923
            ],
            [
              -9.15772462199368,
              38.73885772090716
            ],
            [
              -9.158955441340481,
              38.74087697769045
            ],
            [
              -9.162146851995601,
              38.740813872262436
            ],
            [
              -9.166480916061403,
              38.743216771736684
            ],
            [
              -9.162021700541004,
              38.745126699737455
            ],
            [
              -9.16960124520125,
              38.754564548615065
            ],
            [
              -9.169697512230357,
              38.757318262827596
            ]
          ]
        ]
      }
    },
    {
      "type": "Feature",
      "properties": {
        "name": "são vicente",
        "source": "geoBoundaries PRT ADM3 simplified / lisbonne_qgis",
        "shapeID": "12082587B50298247362229",
        "centroid": [
          -9.126354879246962,
          38.71808049285688
        ]
      },
      "geometry": {
        "type": "Polygon",
        "coordinates": [
          [
            [
              -9.134285890981062,
              38.718941605570706
            ],
            [
              -9.130594404208352,
              38.71301569561791
            ],
            [
              -9.12363373700731,
              38.713714439170076
            ],
            [
              -9.11584789866157,
              38.7076998659561
            ],
            [
              -9.109025621834917,
              38.71454028930299
            ],
            [
              -9.121526156007235,
              38.72282022147607
            ],
            [
              -9.127456622824809,
              38.72385024379378
            ],
            [
              -9.129663122055376,
              38.72139534821679
            ],
            [
              -9.131704247652863,
              38.72331664005094
            ],
            [
              -9.131880079502025,
              38.72064946669957
            ],
            [
              -9.134285890981062,
              38.718941605570706
            ]
          ]
        ]
      }
    }
  ]
}